CTC2_L_00655001-01
1 10000U 25828DJ  26075.70050926  .00000000  00000+0  00000-0 0  9994
2 10000  70.0000   0.0000 0000000   0.0000   0.0000  3.63177864    16
CTC2_L_00655001-02
1 10001U 24716CZ  26075.70050926  .00000000  00000+0  00000-0 0  9990
2 10001  70.0000   0.0000 0000000   0.0000  36.0000  3.63177864    16
CTC2_L_00655001-03
1 10002U 23124NH  26075.70050926  .00000000  00000+0  00000-0 0  9993
2 10002  70.0000   0.0000 0000000   0.0000  72.0000  3.63177864    17
CTC2_L_00655001-04
1 10003U 26040KH  26075.70050926  .00000000  00000+0  00000-0 0  9994
2 10003  70.0000   0.0000 0000000   0.0000 108.0000  3.63177864    18
CTC2_L_00655001-05
1 10004U 24614WI  26075.70050926  .00000000  00000+0  00000-0 0  9990
2 10004  70.0000   0.0000 0000000   0.0000 144.0000  3.63177864    19
CTC2_L_00655001-06
1 10005U 26187PT  26075.70050926  .00000000  00000+0  00000-0 0  9998
2 10005  70.0000   0.0000 0000000   0.0000 180.0000  3.63177864    10
CTC2_L_00655001-07
1 10006U 23441LF  26075.70050926  .00000000  00000+0  00000-0 0  9999
2 10006  70.0000   0.0000 0000000   0.0000 216.0000  3.63177864    11
CTC2_L_00655001-08
1 10007U 22772OB  26075.70050926  .00000000  00000+0  00000-0 0  9996
2 10007  70.0000   0.0000 0000000   0.0000 252.0000  3.63177864    12
CTC2_L_00655001-09
1 10008U 24536VE  26075.70050926  .00000000  00000+0  00000-0 0  9997
2 10008  70.0000   0.0000 0000000   0.0000 288.0000  3.63177864    12
CTC2_L_00655001-10
1 10009U 22617KI  26075.70050926  .00000000  00000+0  00000-0 0  9996
2 10009  70.0000   0.0000 0000000   0.0000 324.0000  3.63177864    14
CTC2_L_00655002-01
1 10010U 25912KD  26075.70050926  .00000000  00000+0  00000-0 0  9999
2 10010  70.0000  30.0000 0000000   0.0000  12.0000  3.63177864    13
CTC2_L_00655002-02
1 10011U 23472SL  26075.70050926  .00000000  00000+0  00000-0 0  9999
2 10011  70.0000  30.0000 0000000   0.0000  48.0000  3.63177864    13
CTC2_L_00655002-03
1 10012U 26104HO  26075.70050926  .00000000  00000+0  00000-0 0  9995
2 10012  70.0000  30.0000 0000000   0.0000  84.0000  3.63177864    14
CTC2_L_00655002-04
1 10013U 25919MV  26075.70050926  .00000000  00000+0  00000-0 0  9999
2 10013  70.0000  30.0000 0000000   0.0000 120.0000  3.63177864    16
CTC2_L_00655002-05
1 10014U 24300AM  26075.70050926  .00000000  00000+0  00000-0 0  9993
2 10014  70.0000  30.0000 0000000   0.0000 156.0000  3.63177864    16
CTC2_L_00655002-06
1 10015U 24741QL  26075.70050926  .00000000  00000+0  00000-0 0  9993
2 10015  70.0000  30.0000 0000000   0.0000 192.0000  3.63177864    17
CTC2_L_00655002-07
1 10016U 24490SI  26075.70050926  .00000000  00000+0  00000-0 0  9995
2 10016  70.0000  30.0000 0000000   0.0000 228.0000  3.63177864    18
CTC2_L_00655002-08
1 10017U 23295XU  26075.70050926  .00000000  00000+0  00000-0 0  9998
2 10017  70.0000  30.0000 0000000   0.0000 264.0000  3.63177864    19
CTC2_L_00655002-09
1 10018U 25654HN  26075.70050926  .00000000  00000+0  00000-0 0  9990
2 10018  70.0000  30.0000 0000000   0.0000 300.0000  3.63177864    11
CTC2_L_00655002-10
1 10019U 24891GR  26075.70050926  .00000000  00000+0  00000-0 0  9993
2 10019  70.0000  30.0000 0000000   0.0000 336.0000  3.63177864    11
CTC2_L_00655003-01
1 10020U 24803DM  26075.70050926  .00000000  00000+0  00000-0 0  9998
2 10020  70.0000  60.0000 0000000   0.0000  24.0000  3.63177864    10
CTC2_L_00655003-02
1 10021U 25907AQ  26075.70050926  .00000000  00000+0  00000-0 0  9995
2 10021  70.0000  60.0000 0000000   0.0000  60.0000  3.63177864    11
CTC2_L_00655003-03
1 10022U 25554DF  26075.70050926  .00000000  00000+0  00000-0 0  9994
2 10022  70.0000  60.0000 0000000   0.0000  96.0000  3.63177864    11
CTC2_L_00655003-04
1 10023U 24169WB  26075.70050926  .00000000  00000+0  00000-0 0  9996
2 10023  70.0000  60.0000 0000000   0.0000 132.0000  3.63177864    13
CTC2_L_00655003-05
1 10024U 26258YM  26075.70050926  .00000000  00000+0  00000-0 0  9998
2 10024  70.0000  60.0000 0000000   0.0000 168.0000  3.63177864    13
CTC2_L_00655003-06
1 10025U 26571GV  26075.70050926  .00000000  00000+0  00000-0 0  9997
2 10025  70.0000  60.0000 0000000   0.0000 204.0000  3.63177864    15
CTC2_L_00655003-07
1 10026U 23370MR  26075.70050926  .00000000  00000+0  00000-0 0  9992
2 10026  70.0000  60.0000 0000000   0.0000 240.0000  3.63177864    16
CTC2_L_00655003-08
1 10027U 26845WO  26075.70050926  .00000000  00000+0  00000-0 0  9993
2 10027  70.0000  60.0000 0000000   0.0000 276.0000  3.63177864    16
CTC2_L_00655003-09
1 10028U 23330XP  26075.70050926  .00000000  00000+0  00000-0 0  9990
2 10028  70.0000  60.0000 0000000   0.0000 312.0000  3.63177864    18
CTC2_L_00655003-10
1 10029U 25574EI  26075.70050926  .00000000  00000+0  00000-0 0  9993
2 10029  70.0000  60.0000 0000000   0.0000 348.0000  3.63177864    18
CTC2_L_00655004-01
1 10030U 23776VU  26075.70050926  .00000000  00000+0  00000-0 0  9997
2 10030  70.0000  90.0000 0000000   0.0000  36.0000  3.63177864    17
CTC2_L_00655004-02
1 10031U 26920WD  26075.70050926  .00000000  00000+0  00000-0 0  9992
2 10031  70.0000  90.0000 0000000   0.0000  72.0000  3.63177864    18
CTC2_L_00655004-03
1 10032U 24963IV  26075.70050926  .00000000  00000+0  00000-0 0  9998
2 10032  70.0000  90.0000 0000000   0.0000 108.0000  3.63177864    19
CTC2_L_00655004-04
1 10033U 26638ZF  26075.70050926  .00000000  00000+0  00000-0 0  9990
2 10033  70.0000  90.0000 0000000   0.0000 144.0000  3.63177864    10
CTC2_L_00655004-05
1 10034U 23093EV  26075.70050926  .00000000  00000+0  00000-0 0  9993
2 10034  70.0000  90.0000 0000000   0.0000 180.0000  3.63177864    11
CTC2_L_00655004-06
1 10035U 23723OS  26075.70050926  .00000000  00000+0  00000-0 0  9994
2 10035  70.0000  90.0000 0000000   0.0000 216.0000  3.63177864    12
CTC2_L_00655004-07
1 10036U 26717NP  26075.70050926  .00000000  00000+0  00000-0 0  9991
2 10036  70.0000  90.0000 0000000   0.0000 252.0000  3.63177864    13
CTC2_L_00655004-08
1 10037U 23191GI  26075.70050926  .00000000  00000+0  00000-0 0  9995
2 10037  70.0000  90.0000 0000000   0.0000 288.0000  3.63177864    13
CTC2_L_00655004-09
1 10038U 25902IE  26075.70050926  .00000000  00000+0  00000-0 0  9998
2 10038  70.0000  90.0000 0000000   0.0000 324.0000  3.63177864    15
CTC2_L_00655004-10
1 10039U 26403GQ  26075.70050926  .00000000  00000+0  00000-0 0  9996
2 10039  70.0000  90.0000 0000000   0.0000   0.0000  3.63177864    17
CTC2_L_00655005-01
1 10040U 25103OS  26075.70050926  .00000000  00000+0  00000-0 0  9994
2 10040  70.0000 120.0000 0000000   0.0000  48.0000  3.63177864    15
CTC2_L_00655005-02
1 10041U 24652SZ  26075.70050926  .00000000  00000+0  00000-0 0  9993
2 10041  70.0000 120.0000 0000000   0.0000  84.0000  3.63177864    16
CTC2_L_00655005-03
1 10042U 23512WC  26075.70050926  .00000000  00000+0  00000-0 0  9998
2 10042  70.0000 120.0000 0000000   0.0000 120.0000  3.63177864    18
CTC2_L_00655005-04
1 10043U 26922FR  26075.70050926  .00000000  00000+0  00000-0 0  9997
2 10043  70.0000 120.0000 0000000   0.0000 156.0000  3.63177864    18
CTC2_L_00655005-05
1 10044U 22979VW  26075.70050926  .00000000  00000+0  00000-0 0  9996
2 10044  70.0000 120.0000 0000000   0.0000 192.0000  3.63177864    19
CTC2_L_00655005-06
1 10045U 24868AA  26075.70050926  .00000000  00000+0  00000-0 0  9996
2 10045  70.0000 120.0000 0000000   0.0000 228.0000  3.63177864    10
CTC2_L_00655005-07
1 10046U 25363UB  26075.70050926  .00000000  00000+0  00000-0 0  9998
2 10046  70.0000 120.0000 0000000   0.0000 264.0000  3.63177864    11
CTC2_L_00655005-08
1 10047U 23232GO  26075.70050926  .00000000  00000+0  00000-0 0  9992
2 10047  70.0000 120.0000 0000000   0.0000 300.0000  3.63177864    13
CTC2_L_00655005-09
1 10048U 24974IC  26075.70050926  .00000000  00000+0  00000-0 0  9997
2 10048  70.0000 120.0000 0000000   0.0000 336.0000  3.63177864    13
CTC2_L_00655005-10
1 10049U 22765HW  26075.70050926  .00000000  00000+0  00000-0 0  9994
2 10049  70.0000 120.0000 0000000   0.0000  12.0000  3.63177864    15
CTC2_L_00655006-01
1 10050U 22146WH  26075.70050926  .00000000  00000+0  00000-0 0  9999
2 10050  70.0000 150.0000 0000000   0.0000  60.0000  3.63177864    13
CTC2_L_00655006-02
1 10051U 25043TF  26075.70050926  .00000000  00000+0  00000-0 0  9999
2 10051  70.0000 150.0000 0000000   0.0000  96.0000  3.63177864    13
CTC2_L_00655006-03
1 10052U 26170ZC  26075.70050926  .00000000  00000+0  00000-0 0  9992
2 10052  70.0000 150.0000 0000000   0.0000 132.0000  3.63177864    15
CTC2_L_00655006-04
1 10053U 25503PT  26075.70050926  .00000000  00000+0  00000-0 0  9992
2 10053  70.0000 150.0000 0000000   0.0000 168.0000  3.63177864    15
CTC2_L_00655006-05
1 10054U 22383ON  26075.70050926  .00000000  00000+0  00000-0 0  9996
2 10054  70.0000 150.0000 0000000   0.0000 204.0000  3.63177864    17
CTC2_L_00655006-06
1 10055U 23814WF  26075.70050926  .00000000  00000+0  00000-0 0  9997
2 10055  70.0000 150.0000 0000000   0.0000 240.0000  3.63177864    18
CTC2_L_00655006-07
1 10056U 24425WH  26075.70050926  .00000000  00000+0  00000-0 0  9997
2 10056  70.0000 150.0000 0000000   0.0000 276.0000  3.63177864    18
CTC2_L_00655006-08
1 10057U 23314TW  26075.70050926  .00000000  00000+0  00000-0 0  9994
2 10057  70.0000 150.0000 0000000   0.0000 312.0000  3.63177864    10
CTC2_L_00655006-09
1 10058U 25189OD  26075.70050926  .00000000  00000+0  00000-0 0  9997
2 10058  70.0000 150.0000 0000000   0.0000 348.0000  3.63177864    10
CTC2_L_00655006-10
1 10059U 25156SJ  26075.70050926  .00000000  00000+0  00000-0 0  9992
2 10059  70.0000 150.0000 0000000   0.0000  24.0000  3.63177864    12
CTC2_L_00655007-01
1 10060U 22461LL  26075.70050926  .00000000  00000+0  00000-0 0  9990
2 10060  70.0000 180.0000 0000000   0.0000  72.0000  3.63177864    10
CTC2_L_00655007-02
1 10061U 26929IS  26075.70050926  .00000000  00000+0  00000-0 0  9994
2 10061  70.0000 180.0000 0000000   0.0000 108.0000  3.63177864    11
